{
  "norad_id": 37841,
  "name": "SRMSAT",
  "history": [
    {
      "epoch": "2026-03-28T15:03:09.076032Z",
      "apogee_km": 862.6737017454789,
      "perigee_km": 845.4408292496528,
      "latitude_deg": 9.330578800645863,
      "longitude_deg": 161.97461435414058,
      "height_km": 842.5144651387311,
      "semi_major_axis_km": 7232.1942654975655,
      "eccentricity": 0.0011914,
      "inclination_deg": 19.9709,
      "raan_deg": 187.0799,
      "arg_perigee_deg": 37.8808,
      "mean_anomaly_deg": 350.3563,
      "mean_motion_rev_day": 14.11554455
    },
    {
      "epoch": "2026-03-29T22:11:08.640384Z",
      "apogee_km": 862.6917221868207,
      "perigee_km": 845.4183547221746,
      "latitude_deg": 8.465392258758708,
      "longitude_deg": 175.07646936016525,
      "height_km": 852.8964898952331,
      "semi_major_axis_km": 7232.192038454497,
      "eccentricity": 0.0011942,
      "inclination_deg": 19.9708,
      "raan_deg": 179.2279,
      "arg_perigee_deg": 52.0256,
      "mean_anomaly_deg": 102.4152,
      "mean_motion_rev_day": 14.11555107
    },
    {
      "epoch": "2026-03-30T06:03:13.986144Z",
      "apogee_km": 862.6933847029895,
      "perigee_km": 845.4159680757621,
      "latitude_deg": 7.991853235022132,
      "longitude_deg": -78.61071037234927,
      "height_km": 843.6978666143804,
      "semi_major_axis_km": 7232.191676389375,
      "eccentricity": 0.00119448,
      "inclination_deg": 19.9708,
      "raan_deg": 177.2436,
      "arg_perigee_deg": 55.6218,
      "mean_anomaly_deg": 328.3738,
      "mean_motion_rev_day": 14.11555213
    }
  ]
}